ONEWEB-0703             
1 56724U 23068Q   26091.51639723 -.00000438  00000+0 -11966-2 0  9998
2 56724  87.8931 274.5075 0002416 110.3457 249.7933 13.15542998139171
ONEWEB-0721             
1 56725U 23068R   26091.49701120  .00000016  00000+0  40192-5 0  9993
2 56725  86.6722 110.0043 0001924  92.7164 267.4189 13.22464051147807
ONEWEB-0015             
1 61594U 24188A   26091.40230669 -.00000394  00000+0 -11465-2 0  9992
2 61594  87.8900  36.3565 0001311  89.2580 270.8698 13.11417847 74395
ONEWEB-0687             
1 61595U 24188B   26091.30744081  .00000062  00000+0  12619-3 0  9993
2 61595  87.9171  21.1498 0001410  67.0259 293.1021 13.17649669 75777
ONEWEB-0688             
1 61596U 24188C   26091.33611540  .00000112  00000+0  25646-3 0  9990
2 61596  87.9171  21.1437 0000802 113.9537 246.1679 13.17651025 75771
ONEWEB-0689             
1 61597U 24188D   26091.35993499  .00000403  00000+0  11003-2 0  9993
2 61597  87.8920  36.3094 0001777  68.9716 291.1602 13.11419695 74381
ONEWEB-0690             
1 61598U 24188E   26091.37012105  .00000597  00000+0  16473-2 0  9992
2 61598  87.8912  36.3261 0002347  93.8918 266.2478 13.11417825 74561
ONEWEB-0691             
1 61599U 24188F   26091.36502473  .00000549  00000+0  15124-2 0  9993
2 61599  87.8920  36.2289 0001433  81.8463 278.2827 13.11419500 74414
ONEWEB-0692             
1 61600U 24188G   26091.38535982  .00000306  00000+0  82704-3 0  9999
2 61600  87.8899  36.3524 0002443  65.1606 294.9776 13.11415752 74403
ONEWEB-0693             
1 61601U 24188H   26091.49980889  .00000031  00000+0  46117-4 0  9996
2 61601  87.9174  21.1327 0002237  99.1279 261.0105 13.17650073 75784
ONEWEB-0695             
1 61602U 24188J   26091.36161484  .00000503  00000+0  13820-2 0  9992
2 61602  87.8903  36.3489 0002011  63.7657 296.3677 13.11420517 74391
ONEWEB-0697             
1 61603U 24188K   26091.39384336 -.00000112  00000+0 -35135-3 0  9991
2 61603  87.8901  36.3320 0002502  67.4965 292.6427 13.11416122 74380
ONEWEB-0698             
1 61604U 24188L   26091.37181373  .00000595  00000+0  16416-2 0  9999
2 61604  87.8902  36.3516 0003072  81.6700 278.4776 13.11417675 74403
ONEWEB-0699             
1 61605U 24188M   26091.39987913 -.00000102  00000+0 -32808-3 0  9996
2 61605  87.8826  51.5454 0002463  72.1325 288.0071 13.10380234 73256
ONEWEB-0700             
1 61606U 24188N   26091.40153459  .00000435  00000+0  12092-2 0  9998
2 61606  87.8834  51.4425 0002240  63.9463 296.1895 13.10376569 73246
ONEWEB-0701             
1 61607U 24188P   26091.41814356  .00000654  00000+0  18368-2 0  9995
2 61607  87.8819  51.5415 0002632  69.9716 290.1694 13.10372447 73255
ONEWEB-0702             
1 61608U 24188Q   26091.34128056 -.00000355  00000+0 -10363-2 0  9990
2 61608  87.8920  36.2497 0002574  60.2285 299.9099 13.11417515 74411
