[{"OBJECT_NAME":"ONEWEB-0703","OBJECT_ID":"2023-068Q","EPOCH":"2026-04-01T12:23:36.720672","MEAN_MOTION":13.15542998,"ECCENTRICITY":0.0002416,"INCLINATION":87.8931,"RA_OF_ASC_NODE":274.5075,"ARG_OF_PERICENTER":110.3457,"MEAN_ANOMALY":249.7933,"EPHEMERIS_TYPE":0,"CLASSIFICATION_TYPE":"U","NORAD_CAT_ID":56724,"ELEMENT_SET_NO":999,"REV_AT_EPOCH":13917,"BSTAR":-0.0011966,"MEAN_MOTION_DOT":-4.38e-6,"MEAN_MOTION_DDOT":0},{"OBJECT_NAME":"ONEWEB-0721","OBJECT_ID":"2023-068R","EPOCH":"2026-04-01T11:55:41.767680","MEAN_MOTION":13.22464051,"ECCENTRICITY":0.0001924,"INCLINATION":86.6722,"RA_OF_ASC_NODE":110.0043,"ARG_OF_PERICENTER":92.7164,"MEAN_ANOMALY":267.4189,"EPHEMERIS_TYPE":0,"CLASSIFICATION_TYPE":"U","NORAD_CAT_ID":56725,"ELEMENT_SET_NO":999,"REV_AT_EPOCH":14780,"BSTAR":4.0192e-6,"MEAN_MOTION_DOT":1.6e-7,"MEAN_MOTION_DDOT":0},{"OBJECT_NAME":"ONEWEB-0015","OBJECT_ID":"2024-188A","EPOCH":"2026-04-01T09:39:19.298016","MEAN_MOTION":13.11417847,"ECCENTRICITY":0.0001311,"INCLINATION":87.89,"RA_OF_ASC_NODE":36.3565,"ARG_OF_PERICENTER":89.258,"MEAN_ANOMALY":270.8698,"EPHEMERIS_TYPE":0,"CLASSIFICATION_TYPE":"U","NORAD_CAT_ID":61594,"ELEMENT_SET_NO":999,"REV_AT_EPOCH":7439,"BSTAR":-0.0011465,"MEAN_MOTION_DOT":-3.94e-6,"MEAN_MOTION_DDOT":0},{"OBJECT_NAME":"ONEWEB-0687","OBJECT_ID":"2024-188B","EPOCH":"2026-04-01T07:22:42.885984","MEAN_MOTION":13.17649669,"ECCENTRICITY":0.000141,"INCLINATION":87.9171,"RA_OF_ASC_NODE":21.1498,"ARG_OF_PERICENTER":67.0259,"MEAN_ANOMALY":293.1021,"EPHEMERIS_TYPE":0,"CLASSIFICATION_TYPE":"U","NORAD_CAT_ID":61595,"ELEMENT_SET_NO":999,"REV_AT_EPOCH":7577,"BSTAR":0.00012619,"MEAN_MOTION_DOT":6.2e-7,"MEAN_MOTION_DDOT":0},{"OBJECT_NAME":"ONEWEB-0688","OBJECT_ID":"2024-188C","EPOCH":"2026-04-01T08:04:00.370560","MEAN_MOTION":13.17651025,"ECCENTRICITY":8.02e-5,"INCLINATION":87.9171,"RA_OF_ASC_NODE":21.1437,"ARG_OF_PERICENTER":113.9537,"MEAN_ANOMALY":246.1679,"EPHEMERIS_TYPE":0,"CLASSIFICATION_TYPE":"U","NORAD_CAT_ID":61596,"ELEMENT_SET_NO":999,"REV_AT_EPOCH":7577,"BSTAR":0.00025646,"MEAN_MOTION_DOT":1.12e-6,"MEAN_MOTION_DDOT":0},{"OBJECT_NAME":"ONEWEB-0689","OBJECT_ID":"2024-188D","EPOCH":"2026-04-01T08:38:18.383136","MEAN_MOTION":13.11419695,"ECCENTRICITY":0.0001777,"INCLINATION":87.892,"RA_OF_ASC_NODE":36.3094,"ARG_OF_PERICENTER":68.9716,"MEAN_ANOMALY":291.1602,"EPHEMERIS_TYPE":0,"CLASSIFICATION_TYPE":"U","NORAD_CAT_ID":61597,"ELEMENT_SET_NO":999,"REV_AT_EPOCH":7438,"BSTAR":0.0011003,"MEAN_MOTION_DOT":4.03e-6,"MEAN_MOTION_DDOT":0},{"OBJECT_NAME":"ONEWEB-0690","OBJECT_ID":"2024-188E","EPOCH":"2026-04-01T08:52:58.458720","MEAN_MOTION":13.11417825,"ECCENTRICITY":0.0002347,"INCLINATION":87.8912,"RA_OF_ASC_NODE":36.3261,"ARG_OF_PERICENTER":93.8918,"MEAN_ANOMALY":266.2478,"EPHEMERIS_TYPE":0,"CLASSIFICATION_TYPE":"U","NORAD_CAT_ID":61598,"ELEMENT_SET_NO":999,"REV_AT_EPOCH":7456,"BSTAR":0.0016473,"MEAN_MOTION_DOT":5.97e-6,"MEAN_MOTION_DDOT":0},{"OBJECT_NAME":"ONEWEB-0691","OBJECT_ID":"2024-188F","EPOCH":"2026-04-01T08:45:38.136672","MEAN_MOTION":13.114195,"ECCENTRICITY":0.0001433,"INCLINATION":87.892,"RA_OF_ASC_NODE":36.2289,"ARG_OF_PERICENTER":81.8463,"MEAN_ANOMALY":278.2827,"EPHEMERIS_TYPE":0,"CLASSIFICATION_TYPE":"U","NORAD_CAT_ID":61599,"ELEMENT_SET_NO":999,"REV_AT_EPOCH":7441,"BSTAR":0.0015124,"MEAN_MOTION_DOT":5.49e-6,"MEAN_MOTION_DDOT":0},{"OBJECT_NAME":"ONEWEB-0692","OBJECT_ID":"2024-188G","EPOCH":"2026-04-01T09:14:55.088448","MEAN_MOTION":13.11415752,"ECCENTRICITY":0.0002443,"INCLINATION":87.8899,"RA_OF_ASC_NODE":36.3524,"ARG_OF_PERICENTER":65.1606,"MEAN_ANOMALY":294.9776,"EPHEMERIS_TYPE":0,"CLASSIFICATION_TYPE":"U","NORAD_CAT_ID":61600,"ELEMENT_SET_NO":999,"REV_AT_EPOCH":7440,"BSTAR":0.00082704,"MEAN_MOTION_DOT":3.06e-6,"MEAN_MOTION_DDOT":0},{"OBJECT_NAME":"ONEWEB-0693","OBJECT_ID":"2024-188H","EPOCH":"2026-04-01T11:59:43.488096","MEAN_MOTION":13.17650073,"ECCENTRICITY":0.0002237,"INCLINATION":87.9174,"RA_OF_ASC_NODE":21.1327,"ARG_OF_PERICENTER":99.1279,"MEAN_ANOMALY":261.0105,"EPHEMERIS_TYPE":0,"CLASSIFICATION_TYPE":"U","NORAD_CAT_ID":61601,"ELEMENT_SET_NO":999,"REV_AT_EPOCH":7578,"BSTAR":4.6117e-5,"MEAN_MOTION_DOT":3.1e-7,"MEAN_MOTION_DDOT":0},{"OBJECT_NAME":"ONEWEB-0695","OBJECT_ID":"2024-188J","EPOCH":"2026-04-01T08:40:43.522176","MEAN_MOTION":13.11420517,"ECCENTRICITY":0.0002011,"INCLINATION":87.8903,"RA_OF_ASC_NODE":36.3489,"ARG_OF_PERICENTER":63.7657,"MEAN_ANOMALY":296.3677,"EPHEMERIS_TYPE":0,"CLASSIFICATION_TYPE":"U","NORAD_CAT_ID":61602,"ELEMENT_SET_NO":999,"REV_AT_EPOCH":7439,"BSTAR":0.001382,"MEAN_MOTION_DOT":5.03e-6,"MEAN_MOTION_DDOT":0},{"OBJECT_NAME":"ONEWEB-0697","OBJECT_ID":"2024-188K","EPOCH":"2026-04-01T09:27:08.066304","MEAN_MOTION":13.11416122,"ECCENTRICITY":0.0002502,"INCLINATION":87.8901,"RA_OF_ASC_NODE":36.332,"ARG_OF_PERICENTER":67.4965,"MEAN_ANOMALY":292.6427,"EPHEMERIS_TYPE":0,"CLASSIFICATION_TYPE":"U","NORAD_CAT_ID":61603,"ELEMENT_SET_NO":999,"REV_AT_EPOCH":7438,"BSTAR":-0.00035135,"MEAN_MOTION_DOT":-1.12e-6,"MEAN_MOTION_DDOT":0},{"OBJECT_NAME":"ONEWEB-0698","OBJECT_ID":"2024-188L","EPOCH":"2026-04-01T08:55:24.706272","MEAN_MOTION":13.11417675,"ECCENTRICITY":0.0003072,"INCLINATION":87.8902,"RA_OF_ASC_NODE":36.3516,"ARG_OF_PERICENTER":81.67,"MEAN_ANOMALY":278.4776,"EPHEMERIS_TYPE":0,"CLASSIFICATION_TYPE":"U","NORAD_CAT_ID":61604,"ELEMENT_SET_NO":999,"REV_AT_EPOCH":7440,"BSTAR":0.0016416,"MEAN_MOTION_DOT":5.95e-6,"MEAN_MOTION_DDOT":0},{"OBJECT_NAME":"ONEWEB-0699","OBJECT_ID":"2024-188M","EPOCH":"2026-04-01T09:35:49.556832","MEAN_MOTION":13.10380234,"ECCENTRICITY":0.0002463,"INCLINATION":87.8826,"RA_OF_ASC_NODE":51.5454,"ARG_OF_PERICENTER":72.1325,"MEAN_ANOMALY":288.0071,"EPHEMERIS_TYPE":0,"CLASSIFICATION_TYPE":"U","NORAD_CAT_ID":61605,"ELEMENT_SET_NO":999,"REV_AT_EPOCH":7325,"BSTAR":-0.00032808,"MEAN_MOTION_DOT":-1.02e-6,"MEAN_MOTION_DDOT":0},{"OBJECT_NAME":"ONEWEB-0700","OBJECT_ID":"2024-188N","EPOCH":"2026-04-01T09:38:12.588576","MEAN_MOTION":13.10376569,"ECCENTRICITY":0.000224,"INCLINATION":87.8834,"RA_OF_ASC_NODE":51.4425,"ARG_OF_PERICENTER":63.9463,"MEAN_ANOMALY":296.1895,"EPHEMERIS_TYPE":0,"CLASSIFICATION_TYPE":"U","NORAD_CAT_ID":61606,"ELEMENT_SET_NO":999,"REV_AT_EPOCH":7324,"BSTAR":0.0012092,"MEAN_MOTION_DOT":4.35e-6,"MEAN_MOTION_DDOT":0},{"OBJECT_NAME":"ONEWEB-0701","OBJECT_ID":"2024-188P","EPOCH":"2026-04-01T10:02:07.603584","MEAN_MOTION":13.10372447,"ECCENTRICITY":0.0002632,"INCLINATION":87.8819,"RA_OF_ASC_NODE":51.5415,"ARG_OF_PERICENTER":69.9716,"MEAN_ANOMALY":290.1694,"EPHEMERIS_TYPE":0,"CLASSIFICATION_TYPE":"U","NORAD_CAT_ID":61607,"ELEMENT_SET_NO":999,"REV_AT_EPOCH":7325,"BSTAR":0.0018368,"MEAN_MOTION_DOT":6.54e-6,"MEAN_MOTION_DDOT":0},{"OBJECT_NAME":"ONEWEB-0702","OBJECT_ID":"2024-188Q","EPOCH":"2026-04-01T08:11:26.640384","MEAN_MOTION":13.11417515,"ECCENTRICITY":0.0002574,"INCLINATION":87.892,"RA_OF_ASC_NODE":36.2497,"ARG_OF_PERICENTER":60.2285,"MEAN_ANOMALY":299.9099,"EPHEMERIS_TYPE":0,"CLASSIFICATION_TYPE":"U","NORAD_CAT_ID":61608,"ELEMENT_SET_NO":999,"REV_AT_EPOCH":7441,"BSTAR":-0.0010363,"MEAN_MOTION_DOT":-3.55e-6,"MEAN_MOTION_DDOT":0}]
